[{"OBJECT_NAME":"STARLINK-6091","OBJECT_ID":"2023-046AC","EPOCH":"2026-03-09T22:00:01.999584","MEAN_MOTION":15.12146567,"ECCENTRICITY":0.00019288,"INCLINATION":42.9992,"RA_OF_ASC_NODE":144.7616,"ARG_OF_PERICENTER":284.3584,"MEAN_ANOMALY":155.5208,"EPHEMERIS_TYPE":0,"CLASSIFICATION_TYPE":"U","NORAD_CAT_ID":56119,"ELEMENT_SET_NO":999,"REV_AT_EPOCH":577,"BSTAR":0.00049828792,"MEAN_MOTION_DOT":8.529e-5,"MEAN_MOTION_DDOT":0},{"OBJECT_NAME":"VENUS","OBJECT_ID":"2017-044B","EPOCH":"2026-03-09T23:09:30.995712","MEAN_MOTION":15.13501273,"ECCENTRICITY":0.0003369,"INCLINATION":97.2854,"RA_OF_ASC_NODE":109.9366,"ARG_OF_PERICENTER":18.8951,"MEAN_ANOMALY":341.2406,"EPHEMERIS_TYPE":0,"CLASSIFICATION_TYPE":"U","NORAD_CAT_ID":42901,"ELEMENT_SET_NO":999,"REV_AT_EPOCH":46594,"BSTAR":0.00021725971,"MEAN_MOTION_DOT":3.827e-5,"MEAN_MOTION_DDOT":0}]
